{
  "norad_id": 58890,
  "name": "STARLINK-31230",
  "history": [
    {
      "epoch": "2026-03-28T18:33:42.371712Z",
      "apogee_km": 475.84005483041983,
      "perigee_km": 474.6276935227779,
      "latitude_deg": -4.0725544394708065e-06,
      "longitude_deg": 127.00810748575809,
      "height_km": 476.1166491159618,
      "semi_major_axis_km": 6853.370874176599,
      "eccentricity": 8.845e-05,
      "inclination_deg": 53.1612,
      "raan_deg": 231.6237,
      "arg_perigee_deg": 88.4926,
      "mean_anomaly_deg": 271.6176,
      "mean_motion_rev_day": 15.30193702
    },
    {
      "epoch": "2026-03-29T02:23:58.552800Z",
      "apogee_km": 476.1621252783152,
      "perigee_km": 474.3254192313507,
      "latitude_deg": 5.778923599687663e-05,
      "longitude_deg": 7.601644174237143,
      "height_km": 476.1497095519973,
      "semi_major_axis_km": 6853.380772254833,
      "eccentricity": 0.000134,
      "inclination_deg": 53.1613,
      "raan_deg": 230.1065,
      "arg_perigee_deg": 90.4886,
      "mean_anomaly_deg": 269.6269,
      "mean_motion_rev_day": 15.30190387
    }
  ]
}